OBJECT_NAME,OBJECT_ID,EPOCH,MEAN_MOTION,ECCENTRICITY,INCLINATION,RA_OF_ASC_NODE,ARG_OF_PERICENTER,MEAN_ANOMALY,EPHEMERIS_TYPE,CLASSIFICATION_TYPE,NORAD_CAT_ID,ELEMENT_SET_NO,REV_AT_EPOCH,BSTAR,MEAN_MOTION_DOT,MEAN_MOTION_DDOT
GEOSCAN 3 (RS92S3),2025-155T,2026-07-14T19:37:08.368608,15.36300498,.0008616,97.4549,166.0372,88.2590,271.9640,0,U,64893,999,8509,.30653E-3,.10781E-3,0
INNOSAT 3 (RS92S0),2025-155U,2026-07-14T20:11:50.889408,15.45798945,.0008278,97.4493,168.0427,91.4015,268.8183,0,U,64894,999,8523,.50985E-3,.24684E-3,0
KNACKSAT-2,1998-067XZ,2026-07-14T08:43:03.084096,15.62347754,.00080246,51.6267,157.5314,324.9954,35.0511,0,U,67683,999,2452,.41016626E-3,.36699E-3,0
