KNACKSAT-2              
1 67683U 98067XZ  26195.36323014  .00036699  00000+0  41017-3 0  9993
2 67683  51.6267 157.5314 0008024 324.9954  35.0511 15.62347754 24527
GEOSCAN 3 (RS92S3)      
1 64893U 25155T   26195.81745797  .00010781  00000+0  30653-3 0  9995
2 64893  97.4549 166.0372 0008616  88.2590 271.9640 15.36300498 85098
INNOSAT 3 (RS92S0)      
1 64894U 25155U   26195.84156122  .00024684  00000+0  50985-3 0  9994
2 64894  97.4493 168.0427 0008278  91.4015 268.8183 15.45798945 85233
